{
    "links": {
        "self": "http://www.neowsapp.com/rest/v1/neo/3574335?api_key=iIulBulltgU6a56xZRHN4H3l9WmuAYTsLGpBGhQ2"
    },
    "id": "3574335",
    "neo_reference_id": "3574335",
    "name": "(2011 OD18)",
    "designation": "2011 OD18",
    "nasa_jpl_url": "http://ssd.jpl.nasa.gov/sbdb.cgi?sstr=3574335",
    "absolute_magnitude_h": 26.5,
    "estimated_diameter": {
        "kilometers": {
            "estimated_diameter_min": 0.0133215567,
            "estimated_diameter_max": 0.0297879063
        },
        "meters": {
            "estimated_diameter_min": 13.3215566698,
            "estimated_diameter_max": 29.7879062798
        },
        "miles": {
            "estimated_diameter_min": 0.008277629,
            "estimated_diameter_max": 0.0185093411
        },
        "feet": {
            "estimated_diameter_min": 43.7058959846,
            "estimated_diameter_max": 97.7293544391
        }
    },
    "is_potentially_hazardous_asteroid": false,
    "close_approach_data": [
        {
            "close_approach_date": "2008-04-26",
            "close_approach_date_full": "2008-Apr-26 15:18",
            "epoch_date_close_approach": 1209223080000,
            "relative_velocity": {
                "kilometers_per_second": "21.4248474976",
                "kilometers_per_hour": "77129.4509913712",
                "miles_per_hour": "47925.2413673884"
            },
            "miss_distance": {
                "astronomical": "0.4162663404",
                "lunar": "161.9276064156",
                "kilometers": "62272557.876534948",
                "miles": "38694373.1825523624"
            },
            "orbiting_body": "Earth"
        },
        {
            "close_approach_date": "2011-07-28",
            "close_approach_date_full": "2011-Jul-28 06:46",
            "epoch_date_close_approach": 1311835560000,
            "relative_velocity": {
                "kilometers_per_second": "10.5038471272",
                "kilometers_per_hour": "37813.8496578347",
                "miles_per_hour": "23496.0556387807"
            },
            "miss_distance": {
                "astronomical": "0.0015389793",
                "lunar": "0.5986629477",
                "kilometers": "230228.025254091",
                "miles": "143057.0612488158"
            },
            "orbiting_body": "Moon"
        },
        {
            "close_approach_date": "2011-07-28",
            "close_approach_date_full": "2011-Jul-28 08:38",
            "epoch_date_close_approach": 1311842280000,
            "relative_velocity": {
                "kilometers_per_second": "9.5392230642",
                "kilometers_per_hour": "34341.2030311347",
                "miles_per_hour": "21338.2880723181"
            },
            "miss_distance": {
                "astronomical": "0.001151617",
                "lunar": "0.447979013",
                "kilometers": "172279.45025579",
                "miles": "107049.486438302"
            },
            "orbiting_body": "Earth"
        }
    ],
    "orbital_data": {
        "orbit_id": "9",
        "orbit_determination_date": "2017-04-06 08:53:05",
        "first_observation_date": "2011-07-31",
        "last_observation_date": "2011-08-08",
        "data_arc_in_days": 8,
        "observations_used": 30,
        "orbit_uncertainty": "8",
        "minimum_orbit_intersection": ".000815926",
        "jupiter_tisserand_invariant": "3.592",
        "epoch_osculation": "2455776.5",
        "eccentricity": ".5275257634396799",
        "semi_major_axis": "2.059935790759895",
        "inclination": "4.314080848196824",
        "ascending_node_longitude": "304.4148159363093",
        "orbital_period": "1079.888588729379",
        "perihelion_distance": ".9732665901025608",
        "perihelion_argument": "332.270893839962",
        "aphelion_distance": "3.14660499141723",
        "perihelion_time": "2455748.043219391035",
        "mean_anomaly": "9.486572157671599",
        "mean_motion": ".3333677230755666",
        "equinox": "J2000",
        "orbit_class": {
            "orbit_class_type": "APO",
            "orbit_class_description": "Near-Earth asteroid orbits which cross the Earth’s orbit similar to that of 1862 Apollo",
            "orbit_class_range": "a (semi-major axis) > 1.0 AU; q (perihelion) < 1.017 AU"
        }
    },
    "is_sentry_object": false
}